CELESTIS-02 & TAURUS R/B
1 25160U 98007D   26063.11624449  .00000040  00000+0  74584-4 0  9991
2 25160 108.0087 120.2058 0063185 311.3583 109.2620 14.22451491455574
