[{"OBJECT_NAME":"CELESTIS-02 & TAURUS R/B","OBJECT_ID":"1998-007D","EPOCH":"2026-03-04T02:47:23.523936","MEAN_MOTION":14.22451491,"ECCENTRICITY":0.0063185,"INCLINATION":108.0087,"RA_OF_ASC_NODE":120.2058,"ARG_OF_PERICENTER":311.3583,"MEAN_ANOMALY":109.262,"EPHEMERIS_TYPE":0,"CLASSIFICATION_TYPE":"U","NORAD_CAT_ID":25160,"ELEMENT_SET_NO":999,"REV_AT_EPOCH":45557,"BSTAR":7.4584e-5,"MEAN_MOTION_DOT":4.0e-7,"MEAN_MOTION_DDOT":0}]
